ONEWEB-0240             
1 48785U 21045U   23290.49650336 -.00000382  00000+0 -10487-2 0  9992
2 48785  87.8941  93.0334 0001481  72.6787 287.4505 13.15548425117507
ONEWEB-0246             
1 48786U 21045V   23290.49229167 -.00000173  00000+0 -49280-3 0  9999
2 48786  87.8944  93.0358 0001736  74.7374 285.3948 13.15546543117377
ONEWEB-0210             
1 48787U 21045W   23290.46694790  .00000065  00000+0  13731-3 0  9995
2 48787  87.8942  93.0489 0002422  79.5761 280.5642 13.15547022116298
ONEWEB-0214             
1 48788U 21045X   23290.47749476 -.00000373  00000+0 -10258-2 0  9993
2 48788  87.8943  93.0357 0002403  82.8206 277.3198 13.15547862116263
ONEWEB-0221             
1 48789U 21045Y   23290.48384403 -.00000128  00000+0 -37412-3 0  9990
2 48789  87.8945  93.0459 0001627  79.2433 280.8880 13.15546890116355
ONEWEB-0213             
1 48790U 21045Z   23290.47116626  .00000050  00000+0  98246-4 0  9996
2 48790  87.8945  93.0657 0001790  75.4044 284.7285 13.15551289116411
ONEWEB-0212             
1 48791U 21045AA  23290.75637453 -.00000188  00000+0 -53466-3 0  9992
2 48791  87.8943  92.9892 0001695  97.5136 262.6186 13.15548729117589
ONEWEB-0227             
1 48792U 21045AB  23290.75004780  .00000212  00000+0  52942-3 0  9998
2 48792  87.8944  93.0054 0001558  85.6036 274.5272 13.15547432117520
